SWARM A                 
1 39452U 13067B   26164.47730766  .00010518  00000+0  18128-3 0  9996
2 39452  87.3336  57.6204 0002998  94.3975 265.7629 15.50886206705677
SWARM C                 
1 39453U 13067C   26164.47719103  .00010505  00000+0  18107-3 0  9992
2 39453  87.3336  56.2015 0002991  94.8272 265.3331 15.50883945705630
BRITE-CA1 (TORONTO)     
1 40020U 14033L   26164.30083336  .00000630  00000+0  10253-3 0  9994
2 40020  97.9733 293.3005 0077298 289.6863  69.6017 14.72671610641648
OCO 2                   
1 40059U 14035A   26164.58466110  .00000361  00000+0  90172-4 0  9993
2 40059  98.2018 105.9326 0001495  86.2724 273.8646 14.57108586635524
BRITE-PL2 (HEWELIUSZ)   
1 40119U 14049B   26164.55708537  .00001494  00000+0  14333-3 0  9996
2 40119  97.9094 276.5291 0015179 119.2476 241.0263 14.94582898640905
MMS 1                   
1 40482U 15011A   26164.66668981 -.00000358  00000+0  00000+0 0  9990
2 40482  72.1331 348.8307 8317350 167.4293 299.2475  0.28480007  1399
MMS 2                   
1 40483U 15011B   26164.66668981 -.00000358  00000+0  00000+0 0  9991
2 40483  72.1332 348.8329 8318136 167.4350 299.2360  0.28480014  1393
MMS 3                   
1 40484U 15011C   26164.66668981 -.00000358  00000+0  00000+0 0  9992
2 40484  72.1372 348.8373 8317703 167.4243 299.2583  0.28467723  1396
MMS 4                   
1 40485U 15011D   26164.66668981 -.00000358  00000+0  00000+0 0  9993
2 40485  72.1332 348.8330 8317312 167.4321 299.2467  0.28467680  1392
ASTROSAT                
1 40930U 15052A   26164.32414978  .00001545  00000+0  10634-3 0  9997
2 40930   5.9955 183.1629 0008206 336.2585  23.7164 14.82501783579259
DAMPE                   
1 41173U 15078A   26164.57315757  .00001202  00000+0  42927-4 0  9998
2 41173  97.4556 170.0222 0013803  88.1604 272.1218 15.30776601583993
PISAT                   
1 41784U 16059B   26164.53387662  .00000838  00000+0  15034-3 0  9998
2 41784  97.8179 165.1437 0028093 214.7728 145.1643 14.68978030519204
HXMT (HUIYAN)           
1 42758U 17034A   26164.58229022  .00003909  00000+0  19572-3 0  9997
2 42758  43.0128 203.1146 0030272 123.5004 236.8744 15.18458559497119
FLYING LAPTOP           
1 42831U 17042G   26164.65264280  .00002844  00000+0  22576-3 0  9996
2 42831  97.4665 320.3218 0019454 133.2428 227.0425 15.01123834485920
ZHANGHENG 1-01 (CSES-1) 
1 43194U 18015C   26164.65174817  .00007016  00000+0  32061-3 0  9992
2 43194  97.6859 330.2394 0017017 279.7424  80.1888 15.20770565464108
SALSAT                  
1 46495U 20068K   26164.61334546  .00008137  00000+0  28494-3 0  9993
2 46495  97.8845 167.4603 0008310 323.2809  36.7860 15.29752133314812
IXPE                    
1 49954U 21121A   26164.66668981  .00010876  00000+0  59017-3 0  9993
2 49954   0.2310 344.1188 0007456  27.1187 173.8103 15.10221995  5795
SMILE                   
1 69123U 26109A   26144.65318427 -.00001976  00000+0 -42379-3 0  9994
2 69123  70.0007 229.2745 0009123 259.5159 100.4951 14.57062785   802
