OBJECT_NAME,OBJECT_ID,EPOCH,MEAN_MOTION,ECCENTRICITY,INCLINATION,RA_OF_ASC_NODE,ARG_OF_PERICENTER,MEAN_ANOMALY,EPHEMERIS_TYPE,CLASSIFICATION_TYPE,NORAD_CAT_ID,ELEMENT_SET_NO,REV_AT_EPOCH,BSTAR,MEAN_MOTION_DOT,MEAN_MOTION_DDOT
SWARM A,2013-067B,2026-06-13T11:27:19.381824,15.50886206,.00029981,87.3336,57.6204,94.3975,265.7629,0,U,39452,999,70567,.18128013E-3,.10518E-3,0
SWARM C,2013-067C,2026-06-13T11:27:09.304992,15.50883945,.00029911,87.3336,56.2015,94.8272,265.3331,0,U,39453,999,70563,.18106518E-3,.10505E-3,0
BRITE-CA1 (TORONTO),2014-033L,2026-06-13T07:13:12.002304,14.72671610,.00772983,97.9733,293.3005,289.6863,69.6017,0,U,40020,999,64164,.10253494E-3,.63E-5,0
OCO 2,2014-035A,2026-06-13T14:01:54.719040,14.57108586,.00014955,98.2018,105.9326,86.2724,273.8646,0,U,40059,999,63552,.90171585E-4,.361E-5,0
BRITE-PL2 (HEWELIUSZ),2014-049B,2026-06-13T13:22:12.175968,14.94582898,.00151794,97.9094,276.5291,119.2476,241.0263,0,U,40119,999,64090,.14332866E-3,.1494E-4,0
MMS 1,2015-011A,2026-06-13T16:00:01.999584,0.28480007,.83173505,72.1331,348.8307,167.4293,299.2475,0,U,40482,999,139,0,-.358E-5,0
MMS 2,2015-011B,2026-06-13T16:00:01.999584,0.28480014,.83181361,72.1332,348.8329,167.4350,299.2360,0,U,40483,999,139,0,-.358E-5,0
MMS 3,2015-011C,2026-06-13T16:00:01.999584,0.28467723,.83177033,72.1372,348.8373,167.4243,299.2583,0,U,40484,999,139,0,-.358E-5,0
MMS 4,2015-011D,2026-06-13T16:00:01.999584,0.28467680,.83173122,72.1332,348.8330,167.4321,299.2467,0,U,40485,999,139,0,-.358E-5,0
ASTROSAT,2015-052A,2026-06-13T07:46:46.540992,14.82501783,.0008206,5.9955,183.1629,336.2585,23.7164,0,U,40930,999,57925,.10634483E-3,.1545E-4,0
DAMPE,2015-078A,2026-06-13T13:45:20.814048,15.30776601,.00138032,97.4556,170.0222,88.1604,272.1218,0,U,41173,999,58399,.42926935E-4,.1202E-4,0
PISAT,2016-059B,2026-06-13T12:48:46.939968,14.68978030,.00280937,97.8179,165.1437,214.7728,145.1643,0,U,41784,999,51920,.15034151E-3,.838E-5,0
HXMT (HUIYAN),2017-034A,2026-06-13T13:58:29.875008,15.18458559,.00302721,43.0128,203.1146,123.5004,236.8744,0,U,42758,999,49711,.19571589E-3,.3909E-4,0
FLYING LAPTOP,2017-042G,2026-06-13T15:39:48.337920,15.01123834,.00194549,97.4665,320.3218,133.2428,227.0425,0,U,42831,999,48592,.22575636E-3,.2844E-4,0
ZHANGHENG 1-01 (CSES-1),2018-015C,2026-06-13T15:38:31.041888,15.20770565,.00170173,97.6859,330.2394,279.7424,80.1888,0,U,43194,999,46410,.32060755E-3,.7016E-4,0
SALSAT,2020-068K,2026-06-13T14:43:13.047744,15.29752133,.00083104,97.8845,167.4603,323.2809,36.7860,0,U,46495,999,31481,.28494451E-3,.8137E-4,0
IXPE,2021-121A,2026-06-13T16:00:01.999584,15.10221995,.0007456,0.2310,344.1188,27.1187,173.8103,0,U,49954,999,579,.59016744E-3,.10876E-3,0
SMILE,2026-109A,2026-05-24T15:40:35.120928,14.57062785,.00091232,70.0007,229.2745,259.5159,100.4951,0,U,69123,999,80,-.42378883E-3,-.1976E-4,0
